[{"phone_number": "006-152-4393", "city": "Aleasebury", "state": "Mississippi", "company_name": "Douglas, Walsh and Luettgen", "description": "harness scalable interfaces", "website": "hettinger.com", "zipcode": "39516", "street_address": "0630 Annalise Rue Apt. 686", "street_address_2": "Apt. 221"}, {"phone_number": "(959)326-7147x005", "city": "South Raetown", "state": "Georgia", "company_name": "Stehr, Beahan and Spencer", "description": "leverage customized eyeballs", "website": "shieldsledner.info", "zipcode": "46391", "street_address": "604 Irine Via Apt. 032", "street_address_2": "Suite 096"}, {"phone_number": "418-431-6723x928", "city": "Lake Garrison", "state": "Texas", "company_name": "Torphy-Larkin", "description": "incubate wireless bandwidth", "website": "reynolds.org", "zipcode": "70350", "street_address": "821 Weston Streets Suite 725", "street_address_2": "Suite 753"}, {"phone_number": "193-181-8500", "city": "Port Lunaburgh", "state": "Connecticut", "company_name": "Ryan and Sons", "description": "facilitate intuitive bandwidth", "website": "skiles.net", "zipcode": "71359", "street_address": "2489 Kuvalis Pine Suite 331", "street_address_2": "Apt. 624"}, {"phone_number": "(067)591-1928", "city": "South Fayetteside", "state": "Indiana", "company_name": "Kulas, White and Weimann", "description": "scale seamless e-business", "website": "haley.com", "zipcode": "25740", "street_address": "00827 Thiel Center", "street_address_2": "Apt. 298"}, {"phone_number": "794.091.3608x97031", "city": "West Lafayetteshire", "state": "Alabama", "company_name": "Schmidt and Sons", "description": "reinvent robust content", "website": "leannon.net", "zipcode": "56259", "street_address": "8666 Smith Park Apt. 572", "street_address_2": "Apt. 498"}, {"phone_number": "661.652.2262x491", "city": "North Jocelyntown", "state": "RhodeIsland", "company_name": "Nitzsche Inc", "description": "seize world-class paradigms", "website": "torphy.info", "zipcode": "21207", "street_address": "0230 Roselyn Canyon Apt. 517", "street_address_2": "Apt. 892"}, {"phone_number": "(854)432-4255", "city": "Hilleryview", "state": "Colorado", "company_name": "Leffler Inc", "description": "engineer front-end deliverables", "website": "turner.com", "zipcode": "00559", "street_address": "7298 Classie Expressway", "street_address_2": "Suite 666"}, {"phone_number": "1-609-327-9899x305", "city": "New Reinamouth", "state": "Ohio", "company_name": "Hahn, Botsford and Brown", "description": "cultivate front-end portals", "website": "grimes.org", "zipcode": "32460", "street_address": "49209 Osinski Cliff", "street_address_2": "Apt. 199"}, {"phone_number": "075-393-9997", "city": "Wittingchester", "state": "Ohio", "company_name": "West, Reichel and Keebler", "description": "productize virtual interfaces", "website": "corkery.net", "zipcode": "00661", "street_address": "954 Howe Harbor Suite 413", "street_address_2": "Suite 933"}, {"phone_number": "06659376190", "city": "West Mamehaven", "state": "Wisconsin", "company_name": "Bahringer-Schroeder", "description": "deploy clicks-and-mortar schemas", "website": "frami.org", "zipcode": "37131", "street_address": "2328 Cormier Point Suite 737", "street_address_2": "Apt. 734"}, {"phone_number": "(673)507-4050x65914", "city": "Hezekiahville", "state": "Missouri", "company_name": "Steuber-Wisoky", "description": "envisioneer revolutionary technologies", "website": "ratke.info", "zipcode": "28172", "street_address": "93579 Streich Ports", "street_address_2": "Suite 555"}, {"phone_number": "409.574.4323x0058", "city": "East Chelsi", "state": "Texas", "company_name": "Hegmann-Marvin", "description": "harness vertical supply-chains", "website": "kerluke.com", "zipcode": "45705", "street_address": "858 Hermiston Place Apt. 103", "street_address_2": "Suite 928"}, {"phone_number": "577.181.2618x07734", "city": "Port Hillery", "state": "Kentucky", "company_name": "Brakus Group", "description": "strategize turn-key e-markets", "website": "jonesbeier.com", "zipcode": "60627", "street_address": "47392 Darin Mountains Apt. 224", "street_address_2": "Suite 060"}, {"phone_number": "01207834883", "city": "Nicolasfort", "state": "Alabama", "company_name": "Schowalter-Cole", "description": "embrace back-end relationships", "website": "weimann.com", "zipcode": "71747", "street_address": "4154 Windler Gardens", "street_address_2": "Apt. 989"}, {"phone_number": "1-895-611-3011x89080", "city": "Stehrstad", "state": "Maryland", "company_name": "Ledner-Bernier", "description": "evolve granular communities", "website": "eichmann.info", "zipcode": "79366", "street_address": "979 Zboncak Points Suite 687", "street_address_2": "Apt. 964"}, {"phone_number": "(408)979-1021x7397", "city": "Jammieberg", "state": "SouthCarolina", "company_name": "Raynor, Weimann and Konopelski", "description": "synergize distributed e-commerce", "website": "rennerhowell.com", "zipcode": "85136", "street_address": "536 Deyanira Park", "street_address_2": "Suite 189"}, {"phone_number": "1-826-817-9015x5661", "city": "Oneidaberg", "state": "Idaho", "company_name": "Bartoletti Group", "description": "harness e-business e-services", "website": "watsica.biz", "zipcode": "51802", "street_address": "752 Rodrick Circle", "street_address_2": "Suite 383"}, {"phone_number": "307-230-7637x205", "city": "East Jacquelineside", "state": "Wyoming", "company_name": "Ortiz, Rohan and Gerhold", "description": "e-enable robust experiences", "website": "harbermorar.org", "zipcode": "99447", "street_address": "4331 Marylee Lakes", "street_address_2": "Suite 661"}, {"phone_number": "1-268-310-4524x504", "city": "Lawsonbury", "state": "Nebraska", "company_name": "Schamberger and Sons", "description": "matrix collaborative initiatives", "website": "cruickshank.com", "zipcode": "93704", "street_address": "8024 Artis Light", "street_address_2": "Apt. 974"}, {"phone_number": "(328)645-4991x0205", "city": "Torphychester", "state": "Oregon", "company_name": "Schoen LLC", "description": "implement efficient vortals", "website": "kertzmann.com", "zipcode": "54379", "street_address": "1202 Green Land Apt. 168", "street_address_2": "Apt. 819"}, {"phone_number": "393-805-0884", "city": "Johnsberg", "state": "Iowa", "company_name": "Stroman, Dare and Stokes", "description": "transform leading-edge ROI", "website": "mullerconn.org", "zipcode": "16326", "street_address": "1907 Mitchell Glens Suite 694", "street_address_2": "Apt. 848"}, {"phone_number": "1-803-469-1308x884", "city": "Kundehaven", "state": "SouthDakota", "company_name": "Towne, Metz and Hilll", "description": "drive integrated platforms", "website": "aufderhar.biz", "zipcode": "57452", "street_address": "90678 Vera Trail Apt. 541", "street_address_2": "Suite 028"}, {"phone_number": "534-782-9518x43137", "city": "New Sorenchester", "state": "NewMexico", "company_name": "Ryan-O&#39;Connell", "description": "visualize extensible e-business", "website": "gaylord.com", "zipcode": "68179", "street_address": "2922 Mason Lake", "street_address_2": "Apt. 640"}, {"phone_number": "308-321-0102x37490", "city": "Fritschside", "state": "SouthCarolina", "company_name": "Ortiz, Dickinson and Cruickshank", "description": "morph front-end action-items", "website": "hartmann.net", "zipcode": "56303", "street_address": "8599 Alonso Locks", "street_address_2": "Suite 977"}, {"phone_number": "732-041-4525x9059", "city": "Port Doreneborough", "state": "Alaska", "company_name": "Wisoky-Keebler", "description": "scale efficient channels", "website": "howell.com", "zipcode": "21614", "street_address": "7209 Rosenbaum Mountain Suite 926", "street_address_2": "Suite 833"}, {"phone_number": "496.372.9735x6091", "city": "East Kenziemouth", "state": "Arizona", "company_name": "Jenkins-Christiansen", "description": "strategize impactful communities", "website": "walsh.com", "zipcode": "69504", "street_address": "2222 Connelly Inlet", "street_address_2": "Suite 713"}, {"phone_number": "1-594-586-5703", "city": "Port Dominiquemouth", "state": "Iowa", "company_name": "Hagenes, Harvey and Lockman", "description": "innovate vertical action-items", "website": "wunschhodkiewicz.com", "zipcode": "62205", "street_address": "28300 Becker Vista Apt. 279", "street_address_2": "Suite 714"}, {"phone_number": "695-320-0862x21752", "city": "Goodwinland", "state": "RhodeIsland", "company_name": "Feest PLC", "description": "aggregate seamless solutions", "website": "beierfarrell.org", "zipcode": "48916", "street_address": "667 Rath Brooks", "street_address_2": "Apt. 870"}, {"phone_number": "1-391-362-5801", "city": "Port Sanaifort", "state": "Tennessee", "company_name": "Bednar-Donnelly", "description": "transition robust infrastructures", "website": "sauer.com", "zipcode": "69412", "street_address": "565 Goldner Mission", "street_address_2": "Suite 525"}, {"phone_number": "125.064.3448x989", "city": "Nikolausshire", "state": "Kansas", "company_name": "Wisozk Ltd", "description": "incubate best-of-breed systems", "website": "reynoldsdavis.net", "zipcode": "37254", "street_address": "49944 Schmidt Shore Suite 314", "street_address_2": "Suite 969"}, {"phone_number": "1-537-304-6170x631", "city": "Schoenchester", "state": "Alaska", "company_name": "Kunde and Sons", "description": "expedite seamless partnerships", "website": "mccullough.com", "zipcode": "48519", "street_address": "1645 Achsah Cove", "street_address_2": "Apt. 868"}, {"phone_number": "08995921173", "city": "West Jayceborough", "state": "NorthDakota", "company_name": "Mills PLC", "description": "facilitate back-end e-markets", "website": "dickensmohr.info", "zipcode": "69917", "street_address": "50776 Ciera Pike", "street_address_2": "Suite 792"}, {"phone_number": "444-233-1521", "city": "Roswellville", "state": "Texas", "company_name": "Kulas Group", "description": "innovate 24/7 applications", "website": "emmerichboyer.com", "zipcode": "60985", "street_address": "167 Ura Points", "street_address_2": "Apt. 590"}, {"phone_number": "(632)431-4008", "city": "Lake Clem", "state": "Alaska", "company_name": "Weber-Nicolas", "description": "aggregate cutting-edge e-commerce", "website": "kohler.com", "zipcode": "89942", "street_address": "664 Lexi Lane", "street_address_2": "Suite 282"}, {"phone_number": "09030287407", "city": "Lockmanfurt", "state": "Michigan", "company_name": "Stehr Group", "description": "benchmark strategic ROI", "website": "simoniscollier.org", "zipcode": "96493", "street_address": "67986 Berton Station Suite 390", "street_address_2": "Apt. 112"}, {"phone_number": "00112321888", "city": "New Marenhaven", "state": "Connecticut", "company_name": "Keebler-Bahringer", "description": "innovate strategic functionalities", "website": "macejkovicmccullough.com", "zipcode": "86388", "street_address": "32732 Keebler Shoals Apt. 501", "street_address_2": "Apt. 181"}, {"phone_number": "+73(4)2906700435", "city": "Lake Reagan", "state": "Utah", "company_name": "Ortiz-Goldner", "description": "facilitate killer portals", "website": "weissnatmohr.com", "zipcode": "92670", "street_address": "246 Meg Dam Suite 093", "street_address_2": "Apt. 703"}, {"phone_number": "282.450.2919x96232", "city": "Port Sherree", "state": "Wyoming", "company_name": "Turcotte Inc", "description": "drive intuitive initiatives", "website": "stoltenberg.org", "zipcode": "17113", "street_address": "1668 Emaline Mission", "street_address_2": "Apt. 601"}, {"phone_number": "686.433.3227", "city": "Lake Ernestine", "state": "SouthCarolina", "company_name": "Wilderman Ltd", "description": "mesh bleeding-edge action-items", "website": "feeney.com", "zipcode": "07388", "street_address": "9228 Wiza Ports Apt. 031", "street_address_2": "Apt. 266"}, {"phone_number": "654-050-0737", "city": "South Alciebury", "state": "Iowa", "company_name": "Hansen-Bartell", "description": "deploy B2C action-items", "website": "spencerfahey.net", "zipcode": "73917", "street_address": "72178 Jaskolski Crossroad", "street_address_2": "Suite 515"}, {"phone_number": "041.836.4866x36510", "city": "North Hortonfurt", "state": "Mississippi", "company_name": "Macejkovic, McGlynn and Skiles", "description": "harness next-generation communities", "website": "rippin.com", "zipcode": "97854", "street_address": "991 Barton Drive Apt. 056", "street_address_2": "Suite 674"}, {"phone_number": "045-845-6545", "city": "Skilesview", "state": "Delaware", "company_name": "Mueller-Bergnaum", "description": "streamline user-centric e-business", "website": "rowe.com", "zipcode": "42516", "street_address": "927 Emiliano Unions", "street_address_2": "Suite 854"}, {"phone_number": "1-666-804-1715", "city": "Merylland", "state": "NewMexico", "company_name": "Pollich LLC", "description": "envisioneer bleeding-edge architectures", "website": "bernier.biz", "zipcode": "20524", "street_address": "24799 Wolf Fork", "street_address_2": "Apt. 509"}, {"phone_number": "1-601-734-0347", "city": "Fredfort", "state": "Missouri", "company_name": "Macejkovic Ltd", "description": "e-enable frictionless users", "website": "kuvalisdickens.com", "zipcode": "02370", "street_address": "836 Lebsack Forest Apt. 150", "street_address_2": "Suite 550"}, {"phone_number": "406-177-6494x37732", "city": "Port Cassie", "state": "NorthDakota", "company_name": "Hilpert Group", "description": "cultivate extensible platforms", "website": "raynor.com", "zipcode": "33971", "street_address": "847 Valentine Crossroad", "street_address_2": "Apt. 861"}, {"phone_number": "190-673-5723", "city": "Anitrastad", "state": "NewJersey", "company_name": "Osinski, Hermiston and Marvin", "description": "leverage granular eyeballs", "website": "schillerlangosh.com", "zipcode": "18089", "street_address": "993 Yundt Square Apt. 282", "street_address_2": "Suite 177"}, {"phone_number": "(677)640-6790x7566", "city": "Berthaview", "state": "Nebraska", "company_name": "Beahan Ltd", "description": "utilize global solutions", "website": "stracke.info", "zipcode": "84131", "street_address": "79105 Ula Summit", "street_address_2": "Apt. 314"}, {"phone_number": "310-178-8745x58974", "city": "Legrostown", "state": "Maine", "company_name": "Ernser-Tillman", "description": "streamline compelling infrastructures", "website": "gottliebgrimes.com", "zipcode": "07661", "street_address": "365 Torp Ports", "street_address_2": "Apt. 207"}, {"phone_number": "725-850-3465x526", "city": "Corwinfort", "state": "Nevada", "company_name": "Ledner-Hessel", "description": "disintermediate cross-media methodologies", "website": "gleichner.com", "zipcode": "34884", "street_address": "6980 Borer Extensions Suite 940", "street_address_2": "Apt. 024"}, {"phone_number": "1-658-979-8003x25734", "city": "Smithbury", "state": "Alaska", "company_name": "Feest LLC", "description": "repurpose distributed synergies", "website": "ondricka.info", "zipcode": "70613", "street_address": "19835 Kovacek Common", "street_address_2": "Apt. 892"}, {"phone_number": "778.696.7242x3692", "city": "Maggiotown", "state": "Kentucky", "company_name": "Harber Group", "description": "incubate interactive niches", "website": "ankundingkonopelski.com", "zipcode": "54200", "street_address": "73071 Lilah Gateway Suite 837", "street_address_2": "Apt. 057"}, {"phone_number": "456-118-4544x469", "city": "Klockomouth", "state": "Washington", "company_name": "Klocko Inc", "description": "integrate compelling deliverables", "website": "hoppe.com", "zipcode": "98997", "street_address": "321 O&#39;Conner Skyway", "street_address_2": "Apt. 027"}, {"phone_number": "581-200-9983x71338", "city": "Huelton", "state": "Tennessee", "company_name": "Anderson-McGlynn", "description": "drive turn-key models", "website": "skilesbradtke.com", "zipcode": "54550", "street_address": "9265 Samantha Creek Suite 845", "street_address_2": "Apt. 024"}, {"phone_number": "(039)470-9539x48100", "city": "East Admiralview", "state": "Oregon", "company_name": "Jaskolski, Koch and Feest", "description": "cultivate dot-com portals", "website": "strosinbeahan.net", "zipcode": "37913", "street_address": "0695 Murray Row Suite 513", "street_address_2": "Apt. 061"}, {"phone_number": "+46(4)4451552519", "city": "West Veronica", "state": "WestVirginia", "company_name": "Shields, Strosin and Zemlak", "description": "expedite extensible communities", "website": "ankunding.info", "zipcode": "77475", "street_address": "3554 Taniyah Parks", "street_address_2": "Apt. 860"}, {"phone_number": "284-465-6071x13463", "city": "Port Blaine", "state": "Maine", "company_name": "Hammes LLC", "description": "utilize 24/7 web-readiness", "website": "schaefer.org", "zipcode": "91374", "street_address": "615 Kassulke Ports", "street_address_2": "Suite 218"}, {"phone_number": "349-907-3534x269", "city": "Edrisfort", "state": "Michigan", "company_name": "Lubowitz, Cummings and Schaefer", "description": "integrate synergistic web services", "website": "powlowski.com", "zipcode": "13585", "street_address": "125 Margie Plaza", "street_address_2": "Apt. 968"}, {"phone_number": "1-985-584-5673", "city": "North Martha", "state": "Nebraska", "company_name": "Trantow-Raynor", "description": "cultivate extensible deliverables", "website": "ernser.org", "zipcode": "47401", "street_address": "86472 Braun Field Suite 587", "street_address_2": "Suite 259"}, {"phone_number": "1-966-936-7287", "city": "Lake Windy", "state": "NewMexico", "company_name": "Mohr-Waelchi", "description": "optimize virtual technologies", "website": "bode.net", "zipcode": "41540", "street_address": "093 Stark Common Suite 707", "street_address_2": "Apt. 113"}, {"phone_number": "393-511-6294x349", "city": "North Jonathanville", "state": "Colorado", "company_name": "Durgan LLC", "description": "re-intermediate sticky methodologies", "website": "gutkowski.net", "zipcode": "21224", "street_address": "44839 Conn Corners Apt. 246", "street_address_2": "Apt. 880"}, {"phone_number": "1-697-917-1014", "city": "Port Hellenport", "state": "Minnesota", "company_name": "Frami, Jacobson and Jakubowski", "description": "orchestrate efficient mindshare", "website": "toy.com", "zipcode": "97266", "street_address": "9323 Terry Passage", "street_address_2": "Suite 071"}, {"phone_number": "(086)296-4650", "city": "Ellarmouth", "state": "RhodeIsland", "company_name": "Stamm Ltd", "description": "empower scalable mindshare", "website": "vandervort.com", "zipcode": "61091", "street_address": "6945 McLaughlin Squares", "street_address_2": "Apt. 318"}, {"phone_number": "1-844-650-1861x9934", "city": "Beerstad", "state": "Indiana", "company_name": "Walter, Keeling and Williamson", "description": "integrate world-class niches", "website": "gislason.net", "zipcode": "64692", "street_address": "00311 Mayer Prairie Apt. 566", "street_address_2": "Apt. 570"}, {"phone_number": "(609)549-6306", "city": "Wanitabury", "state": "Maryland", "company_name": "Steuber and Sons", "description": "syndicate back-end solutions", "website": "brakus.com", "zipcode": "63121", "street_address": "744 Kautzer Drives Apt. 658", "street_address_2": "Suite 005"}, {"phone_number": "096-594-2783x0910", "city": "Doyleport", "state": "Maine", "company_name": "Wiza Group", "description": "deploy user-centric architectures", "website": "brekkeokuneva.com", "zipcode": "85716", "street_address": "732 Walsh Gardens Suite 606", "street_address_2": "Apt. 649"}, {"phone_number": "1-646-498-8853x705", "city": "Odaside", "state": "Ohio", "company_name": "Goodwin LLC", "description": "matrix global technologies", "website": "kshlerin.com", "zipcode": "63797", "street_address": "221 Jasmine Keys Apt. 835", "street_address_2": "Suite 543"}, {"phone_number": "+42(8)6035622847", "city": "Adamsberg", "state": "Pennsylvania", "company_name": "Braun, Volkman and Pouros", "description": "leverage proactive communities", "website": "lakinjones.com", "zipcode": "53152", "street_address": "377 Murazik Throughway", "street_address_2": "Suite 222"}, {"phone_number": "614-441-1763x73612", "city": "West Caitlinchester", "state": "Alaska", "company_name": "Kertzmann-Becker", "description": "morph magnetic bandwidth", "website": "kunde.com", "zipcode": "45892", "street_address": "49012 Balistreri Islands Apt. 733", "street_address_2": "Suite 791"}, {"phone_number": "187.563.6021", "city": "Port Olen", "state": "Arkansas", "company_name": "Schimmel PLC", "description": "grow vertical metrics", "website": "roberts.com", "zipcode": "15237", "street_address": "2339 Mayert Tunnel Apt. 035", "street_address_2": "Apt. 583"}, {"phone_number": "(887)439-0607", "city": "North Elza", "state": "Pennsylvania", "company_name": "Abshire Group", "description": "synergize dot-com initiatives", "website": "cruickshank.com", "zipcode": "11602", "street_address": "60671 Stark Valleys Suite 982", "street_address_2": "Suite 498"}, {"phone_number": "195.574.4734", "city": "Port Sabastianfurt", "state": "Oregon", "company_name": "Bahringer Inc", "description": "re-intermediate turn-key schemas", "website": "rohan.biz", "zipcode": "01891", "street_address": "52118 Bailey Manor Suite 879", "street_address_2": "Apt. 362"}, {"phone_number": "1-710-709-6740", "city": "Port Fleming", "state": "Iowa", "company_name": "Hansen, Orn and Bernier", "description": "integrate global networks", "website": "senger.com", "zipcode": "16324", "street_address": "059 Okuneva Manors Apt. 241", "street_address_2": "Apt. 289"}, {"phone_number": "885-852-7982", "city": "Jacobsonfort", "state": "Kansas", "company_name": "Gusikowski, O&#39;Keefe and Mann", "description": "re-intermediate innovative e-tailers", "website": "littel.info", "zipcode": "81984", "street_address": "7319 Leonore Street Apt. 000", "street_address_2": "Apt. 496"}, {"phone_number": "(888)207-6055", "city": "New Butchfurt", "state": "Alabama", "company_name": "Schowalter-Borer", "description": "target bleeding-edge info-mediaries", "website": "collinshessel.biz", "zipcode": "69141", "street_address": "39240 Star Drives", "street_address_2": "Apt. 144"}, {"phone_number": "(774)278-7610x712", "city": "Lake Nortonmouth", "state": "SouthCarolina", "company_name": "Hudson-Mante", "description": "enhance plug-and-play partnerships", "website": "botsfordstokes.com", "zipcode": "46594", "street_address": "90071 Brooks Square", "street_address_2": "Apt. 967"}, {"phone_number": "(941)985-5361x99138", "city": "Lucettaview", "state": "Indiana", "company_name": "Hane and Sons", "description": "expedite rich portals", "website": "schamberger.com", "zipcode": "11929", "street_address": "94068 Bergstrom Wells Suite 672", "street_address_2": "Apt. 903"}, {"phone_number": "+11(1)2338482921", "city": "New Anthonyhaven", "state": "Michigan", "company_name": "Hintz LLC", "description": "evolve cross-platform vortals", "website": "hintz.com", "zipcode": "32406", "street_address": "35932 McKenzie Radial Apt. 773", "street_address_2": "Apt. 136"}, {"phone_number": "249-679-9385x9508", "city": "Cassinbury", "state": "NewMexico", "company_name": "Schulist, Rau and Luettgen", "description": "maximize virtual interfaces", "website": "gislasonkris.info", "zipcode": "40788", "street_address": "955 Gladys Club", "street_address_2": "Suite 546"}, {"phone_number": "(685)776-3936x215", "city": "Milliemouth", "state": "Virginia", "company_name": "Ledner Group", "description": "orchestrate cross-platform web-readiness", "website": "farrellbeahan.com", "zipcode": "20130", "street_address": "9307 Gerhold Run Apt. 136", "street_address_2": "Apt. 026"}, {"phone_number": "00439947730", "city": "Gavinville", "state": "Colorado", "company_name": "Schimmel, Bruen and Schamberger", "description": "grow revolutionary interfaces", "website": "sawaynmckenzie.com", "zipcode": "43655", "street_address": "45580 Adams Rest", "street_address_2": "Suite 364"}, {"phone_number": "068.880.4547", "city": "Langworthmouth", "state": "Arizona", "company_name": "White, Lowe and Predovic", "description": "optimize distributed eyeballs", "website": "ondricka.com", "zipcode": "35321", "street_address": "7030 Garett Roads", "street_address_2": "Suite 556"}, {"phone_number": "1-627-913-4307", "city": "East Cristopherview", "state": "Alaska", "company_name": "Mohr, Grady and Bahringer", "description": "engineer sticky e-services", "website": "daugherty.com", "zipcode": "87682", "street_address": "94366 Hagenes Isle", "street_address_2": "Apt. 472"}, {"phone_number": "(868)833-0651x3176", "city": "Jerrelfort", "state": "NewYork", "company_name": "VonRueden-Durgan", "description": "iterate 24/7 e-markets", "website": "feeney.com", "zipcode": "80826", "street_address": "9900 Lois Estates Suite 841", "street_address_2": "Apt. 129"}, {"phone_number": "1-172-738-2718x460", "city": "Gerholdmouth", "state": "Oregon", "company_name": "Rohan Group", "description": "transform ubiquitous infrastructures", "website": "ornmoen.org", "zipcode": "62448", "street_address": "909 Orn Estate Apt. 720", "street_address_2": "Suite 705"}, {"phone_number": "515.005.5400x211", "city": "Abshireport", "state": "Kansas", "company_name": "Ortiz-O&#39;Keefe", "description": "engage efficient deliverables", "website": "okeefe.net", "zipcode": "60534", "street_address": "248 Pagac Cliffs Suite 246", "street_address_2": "Apt. 292"}, {"phone_number": "833-485-8621", "city": "Lake Dante", "state": "Connecticut", "company_name": "O&#39;Keefe Ltd", "description": "re-contextualize granular metrics", "website": "flatley.net", "zipcode": "72530", "street_address": "68156 O&#39;Conner Corners Apt. 014", "street_address_2": "Apt. 955"}, {"phone_number": "(771)958-0973x2668", "city": "West Chalmer", "state": "Arizona", "company_name": "Paucek-Bernier", "description": "monetize proactive technologies", "website": "wilkinson.com", "zipcode": "76519", "street_address": "8633 Dino Point Suite 818", "street_address_2": "Suite 817"}, {"phone_number": "113-748-3135x797", "city": "Longhaven", "state": "NewMexico", "company_name": "Emmerich, Cartwright and Larkin", "description": "e-enable interactive initiatives", "website": "mayerkuhlman.com", "zipcode": "99352", "street_address": "113 Lindgren Points", "street_address_2": "Apt. 251"}, {"phone_number": "(300)350-7005x889", "city": "Tillmanberg", "state": "Washington", "company_name": "Hane, Wilkinson and Little", "description": "transform dot-com solutions", "website": "hayes.biz", "zipcode": "04291", "street_address": "877 Purdy Extension", "street_address_2": "Apt. 247"}, {"phone_number": "(271)017-1886", "city": "Arlandfort", "state": "Delaware", "company_name": "Stamm, McDermott and O&#39;Keefe", "description": "synthesize integrated paradigms", "website": "brownstamm.org", "zipcode": "96118", "street_address": "12603 Yahaira Ports", "street_address_2": "Apt. 069"}, {"phone_number": "372.885.8917x960", "city": "Welchbury", "state": "Montana", "company_name": "Beier, Welch and Rippin", "description": "benchmark viral channels", "website": "gaylord.com", "zipcode": "39820", "street_address": "454 Thresa Path Suite 607", "street_address_2": "Suite 913"}, {"phone_number": "1-119-055-0184x332", "city": "Chuckchester", "state": "NewMexico", "company_name": "Rippin Inc", "description": "morph cutting-edge experiences", "website": "jerdealtenwerth.com", "zipcode": "35410", "street_address": "4223 Kassulke Hollow Suite 478", "street_address_2": "Apt. 743"}, {"phone_number": "(804)701-0648", "city": "Russelborough", "state": "Massachusetts", "company_name": "Friesen-Johnston", "description": "extend open-source experiences", "website": "mayer.org", "zipcode": "07688", "street_address": "78072 Oris Trafficway Apt. 377", "street_address_2": "Suite 510"}, {"phone_number": "286-399-3865", "city": "New Evelenamouth", "state": "Wisconsin", "company_name": "Hermann-Hackett", "description": "visualize global mindshare", "website": "swift.net", "zipcode": "12764", "street_address": "369 Koch Stravenue", "street_address_2": "Suite 305"}, {"phone_number": "560.287.9513x0248", "city": "Lake Quinnfurt", "state": "Wisconsin", "company_name": "Homenick, Christiansen and Murray", "description": "synergize intuitive web services", "website": "okeefe.com", "zipcode": "03328", "street_address": "840 Shanahan Flats", "street_address_2": "Apt. 321"}, {"phone_number": "+76(1)8035715781", "city": "Lake Gee", "state": "Utah", "company_name": "Casper-Sawayn", "description": "visualize value-added platforms", "website": "waltergottlieb.net", "zipcode": "19100", "street_address": "9845 Lotta Corners", "street_address_2": "Apt. 957"}, {"phone_number": "1-284-282-7779", "city": "Port Roll", "state": "Oklahoma", "company_name": "Waters-Kertzmann", "description": "redefine plug-and-play relationships", "website": "marks.com", "zipcode": "87327", "street_address": "381 Upton Villages Suite 550", "street_address_2": "Suite 828"}, {"phone_number": "02622671430", "city": "North Averyland", "state": "Kansas", "company_name": "Abbott, Gerlach and Price", "description": "transform ubiquitous vortals", "website": "aufderhar.com", "zipcode": "94802", "street_address": "80013 Jamey Village Suite 569", "street_address_2": "Apt. 823"}, {"phone_number": "09566994263", "city": "Runtestad", "state": "Illinois", "company_name": "Kuhic Inc", "description": "expedite virtual schemas", "website": "mclaughlin.com", "zipcode": "16735", "street_address": "4895 Phoenix Common", "street_address_2": "Suite 967"}]